{
  "type": "FeatureCollection",
  "features": [
    {
      "type": "Feature",
      "properties": {
        "norad_id": 58701,
        "name": "TIANMU-1 16",
        "group": "weather",
        "lat": 11.496683472523761,
        "lon": 176.49383741090452,
        "alt_km": 495.2111883599946,
        "timestamp": "2025-12-23T05:02:11.667291+00:00",
        "meta_object_name": "TIANMU-1 16",
        "meta_object_id": "2024-004B",
        "meta_epoch": "2025-12-22T22:41:05.686080",
        "meta_mean_motion": 15.2456149,
        "meta_eccentricity": 0.00043587,
        "meta_inclination": 97.4564,
        "meta_ra_of_asc_node": 177.7569,
        "meta_arg_of_pericenter": 249.3516,
        "meta_mean_anomaly": 110.7255,
        "meta_ephemeris_type": 0,
        "meta_classification_type": "U",
        "meta_norad_cat_id": 58701,
        "meta_element_set_no": 999,
        "meta_rev_at_epoch": 10890,
        "meta_bstar": 0.00028820415,
        "meta_mean_motion_dot": 7.028e-05,
        "meta_mean_motion_ddot": 0,
        "tle_line1": "1 58701U 24004B   25356.94520470  .00007028  00000+0  28820-3 0  9992",
        "tle_line2": "2 58701  97.4564 177.7569 0004358 249.3516 110.7255 15.24561490108906"
      },
      "geometry": {
        "type": "Point",
        "coordinates": [
          176.49383741090452,
          11.496683472523761
        ]
      }
    },
    {
      "type": "Feature",
      "properties": {
        "norad_id": 58702,
        "name": "TIANMU-1 17",
        "group": "weather",
        "lat": 79.2112666979729,
        "lon": 41.87704928258091,
        "alt_km": 486.76813893641884,
        "timestamp": "2025-12-23T05:02:11.667301+00:00",
        "meta_object_name": "TIANMU-1 17",
        "meta_object_id": "2024-004C",
        "meta_epoch": "2025-12-22T22:18:29.562912",
        "meta_mean_motion": 15.24604498,
        "meta_eccentricity": 0.00035412,
        "meta_inclination": 97.4597,
        "meta_ra_of_asc_node": 178.1566,
        "meta_arg_of_pericenter": 250.8299,
        "meta_mean_anomaly": 109.2555,
        "meta_ephemeris_type": 0,
        "meta_classification_type": "U",
        "meta_norad_cat_id": 58702,
        "meta_element_set_no": 999,
        "meta_rev_at_epoch": 10889,
        "meta_bstar": 0.00030034457,
        "meta_mean_motion_dot": 7.337e-05,
        "meta_mean_motion_ddot": 0,
        "tle_line1": "1 58702U 24004C   25356.92950883  .00007337  00000+0  30034-3 0  9999",
        "tle_line2": "2 58702  97.4597 178.1566 0003541 250.8299 109.2555 15.24604498108893"
      },
      "geometry": {
        "type": "Point",
        "coordinates": [
          41.87704928258091,
          79.2112666979729
        ]
      }
    },
    {
      "type": "Feature",
      "properties": {
        "norad_id": 58703,
        "name": "TIANMU-1 18",
        "group": "weather",
        "lat": -8.811817383905549,
        "lon": -2.530912417041371,
        "alt_km": 495.10860529792353,
        "timestamp": "2025-12-23T05:02:11.667311+00:00",
        "meta_object_name": "TIANMU-1 18",
        "meta_object_id": "2024-004D",
        "meta_epoch": "2025-12-22T23:29:07.114848",
        "meta_mean_motion": 15.2459028,
        "meta_eccentricity": 0.000291,
        "meta_inclination": 97.4616,
        "meta_ra_of_asc_node": 178.4029,
        "meta_arg_of_pericenter": 247.4761,
        "meta_mean_anomaly": 112.6169,
        "meta_ephemeris_type": 0,
        "meta_classification_type": "U",
        "meta_norad_cat_id": 58703,
        "meta_element_set_no": 999,
        "meta_rev_at_epoch": 10890,
        "meta_bstar": 0.00030065554,
        "meta_mean_motion_dot": 7.341e-05,
        "meta_mean_motion_ddot": 0,
        "tle_line1": "1 58703U 24004D   25356.97855457  .00007341  00000+0  30066-3 0  9996",
        "tle_line2": "2 58703  97.4616 178.4029 0002910 247.4761 112.6169 15.24590280108902"
      },
      "geometry": {
        "type": "Point",
        "coordinates": [
          -2.530912417041371,
          -8.811817383905549
        ]
      }
    },
    {
      "type": "Feature",
      "properties": {
        "norad_id": 58990,
        "name": "INSAT-3DS",
        "group": "weather",
        "lat": 0.006659712369395992,
        "lon": -110.35157626809607,
        "alt_km": 35781.633565823504,
        "timestamp": "2025-12-23T05:02:11.667322+00:00",
        "meta_object_name": "INSAT-3DS",
        "meta_object_id": "2024-033A",
        "meta_epoch": "2025-12-22T22:06:55.502208",
        "meta_mean_motion": 1.00271735,
        "meta_eccentricity": 0.00011592,
        "meta_inclination": 0.0565,
        "meta_ra_of_asc_node": 100.6756,
        "meta_arg_of_pericenter": 173.2771,
        "meta_mean_anomaly": 231.6064,
        "meta_ephemeris_type": 0,
        "meta_classification_type": "U",
        "meta_norad_cat_id": 58990,
        "meta_element_set_no": 999,
        "meta_rev_at_epoch": 4530,
        "meta_bstar": 0,
        "meta_mean_motion_dot": -1.35e-06,
        "meta_mean_motion_ddot": 0,
        "tle_line1": "1 58990U 24033A   25356.92147572 -.00000135  00000+0  00000+0 0  9999",
        "tle_line2": "2 58990   0.0565 100.6756 0001159 173.2771 231.6064  1.00271735 45308"
      },
      "geometry": {
        "type": "Point",
        "coordinates": [
          -110.35157626809607,
          0.006659712369395992
        ]
      }
    },
    {
      "type": "Feature",
      "properties": {
        "norad_id": 59051,
        "name": "METEOR-M2 4",
        "group": "weather",
        "lat": 58.26439958012063,
        "lon": 148.25195265136313,
        "alt_km": 815.7668372043418,
        "timestamp": "2025-12-23T05:02:11.667375+00:00",
        "meta_object_name": "METEOR-M2 4",
        "meta_object_id": "2024-039A",
        "meta_epoch": "2025-12-22T23:24:24.715584",
        "meta_mean_motion": 14.22402782,
        "meta_eccentricity": 0.00065055,
        "meta_inclination": 98.6781,
        "meta_ra_of_asc_node": 313.7243,
        "meta_arg_of_pericenter": 327.9423,
        "meta_mean_anomaly": 32.1359,
        "meta_ephemeris_type": 0,
        "meta_classification_type": "U",
        "meta_norad_cat_id": 59051,
        "meta_element_set_no": 999,
        "meta_rev_at_epoch": 9421,
        "meta_bstar": 3.4571856e-05,
        "meta_mean_motion_dot": 3.3e-07,
        "meta_mean_motion_ddot": 0,
        "tle_line1": "1 59051U 24039A   25356.97528606  .00000033  00000+0  34572-4 0  9992",
        "tle_line2": "2 59051  98.6781 313.7243 0006505 327.9423  32.1359 14.22402782 94211"
      },
      "geometry": {
        "type": "Point",
        "coordinates": [
          148.25195265136313,
          58.26439958012063
        ]
      }
    },
    {
      "type": "Feature",
      "properties": {
        "norad_id": 60133,
        "name": "GOES 19",
        "group": "weather",
        "lat": 0.0033245801969557644,
        "lon": 92.36933214376928,
        "alt_km": 35788.57850572431,
        "timestamp": "2025-12-23T05:02:11.667389+00:00",
        "meta_object_name": "GOES 19",
        "meta_object_id": "2024-119A",
        "meta_epoch": "2025-12-22T21:21:59.804064",
        "meta_mean_motion": 1.00272021,
        "meta_eccentricity": 9.707e-05,
        "meta_inclination": 0.0098,
        "meta_ra_of_asc_node": 264.6523,
        "meta_arg_of_pericenter": 59.6972,
        "meta_mean_anomaly": 12.6533,
        "meta_ephemeris_type": 0,
        "meta_classification_type": "U",
        "meta_norad_cat_id": 60133,
        "meta_element_set_no": 999,
        "meta_rev_at_epoch": 519,
        "meta_bstar": 0,
        "meta_mean_motion_dot": -2.27e-06,
        "meta_mean_motion_ddot": 0,
        "tle_line1": "1 60133U 24119A   25356.89027551 -.00000227  00000+0  00000+0 0  9998",
        "tle_line2": "2 60133   0.0098 264.6523 0000970  59.6972  12.6533  1.00272021  5194"
      },
      "geometry": {
        "type": "Point",
        "coordinates": [
          92.36933214376928,
          0.0033245801969557644
        ]
      }
    },
    {
      "type": "Feature",
      "properties": {
        "norad_id": 65815,
        "name": "FENGYUN 3H",
        "group": "weather",
        "lat": -80.24447211916018,
        "lon": 54.14703053334098,
        "alt_km": 833.5175901465018,
        "timestamp": "2025-12-23T05:02:11.667402+00:00",
        "meta_object_name": "FENGYUN 3H",
        "meta_object_id": "2025-219A",
        "meta_epoch": "2025-12-22T22:42:58.832928",
        "meta_mean_motion": 14.19907269,
        "meta_eccentricity": 7.768e-05,
        "meta_inclination": 98.6599,
        "meta_ra_of_asc_node": 296.3158,
        "meta_arg_of_pericenter": 106.8572,
        "meta_mean_anomaly": 253.269,
        "meta_ephemeris_type": 0,
        "meta_classification_type": "U",
        "meta_norad_cat_id": 65815,
        "meta_element_set_no": 999,
        "meta_rev_at_epoch": 1237,
        "meta_bstar": 6.2033827e-05,
        "meta_mean_motion_dot": 8.8e-07,
        "meta_mean_motion_ddot": 0,
        "tle_line1": "1 65815U 25219A   25356.94651427  .00000088  00000+0  62034-4 0  9997",
        "tle_line2": "2 65815  98.6599 296.3158 0000776 106.8572 253.2690 14.19907269 12374"
      },
      "geometry": {
        "type": "Point",
        "coordinates": [
          54.14703053334098,
          -80.24447211916018
        ]
      }
    }
  ]
}